CTC2_L_00365016-03
1 10062U 24025ON  26075.70045139  .00000000  00000+0  00000-0 0  9990
2 10062  40.0000 180.0000 0000000   0.0000   0.0000 13.16009679    17
CTC2_L_00365016-04
1 10063U 25392ML  26075.70045139  .00000000  00000+0  00000-0 0  9999
2 10063  40.0000 180.0000 0000000   0.0000  90.0000 13.16009679    17
CTC2_L_00365017-01
1 10064U 26583NA  26075.70045139  .00000000  00000+0  00000-0 0  9993
2 10064  40.0000 192.0000 0000000   0.0000 192.0000 13.16009679    14
CTC2_L_00365017-02
1 10065U 24063KG  26075.70045139  .00000000  00000+0  00000-0 0  9995
2 10065  40.0000 192.0000 0000000   0.0000 282.0000 13.16009679    15
CTC2_L_00365017-03
1 10066U 23831XF  26075.70045139  .00000000  00000+0  00000-0 0  9998
2 10066  40.0000 192.0000 0000000   0.0000  12.0000 13.16009679    17
CTC2_L_00365017-04
1 10067U 24472GM  26075.70045139  .00000000  00000+0  00000-0 0  9991
2 10067  40.0000 192.0000 0000000   0.0000 102.0000 13.16009679    18
CTC2_L_00365018-01
1 10068U 25167WN  26075.70045139  .00000000  00000+0  00000-0 0  9994
2 10068  40.0000 204.0000 0000000   0.0000 204.0000 13.16009679    16
CTC2_L_00365018-02
1 10069U 22648SQ  26075.70045139  .00000000  00000+0  00000-0 0  9996
2 10069  40.0000 204.0000 0000000   0.0000 294.0000 13.16009679    16
CTC2_L_00365018-03
1 10070U 26971HJ  26075.70045139  .00000000  00000+0  00000-0 0  9991
2 10070  40.0000 204.0000 0000000   0.0000  24.0000 13.16009679    19
CTC2_L_00365018-04
1 10071U 26578VW  26075.70045139  .00000000  00000+0  00000-0 0  9995
2 10071  40.0000 204.0000 0000000   0.0000 114.0000 13.16009679    10
CTC2_L_00365019-01
1 10072U 26888UP  26075.70045139  .00000000  00000+0  00000-0 0  9990
2 10072  40.0000 216.0000 0000000   0.0000 216.0000 13.16009679    17
CTC2_L_00365019-02
1 10073U 22363YB  26075.70045139  .00000000  00000+0  00000-0 0  9995
2 10073  40.0000 216.0000 0000000   0.0000 306.0000 13.16009679    18
CTC2_L_00365019-03
1 10074U 23943ZL  26075.70045139  .00000000  00000+0  00000-0 0  9991
2 10074  40.0000 216.0000 0000000   0.0000  36.0000 13.16009679    19
CTC2_L_00365019-04
1 10075U 26625JW  26075.70045139  .00000000  00000+0  00000-0 0  9992
2 10075  40.0000 216.0000 0000000   0.0000 126.0000 13.16009679    10
CTC2_L_00365020-01
1 10076U 22949UJ  26075.70045139  .00000000  00000+0  00000-0 0  9998
2 10076  40.0000 228.0000 0000000   0.0000 228.0000 13.16009679    17
CTC2_L_00365020-02
1 10077U 25713MR  26075.70045139  .00000000  00000+0  00000-0 0  9991
2 10077  40.0000 228.0000 0000000   0.0000 318.0000 13.16009679    18
CTC2_L_00365020-03
1 10078U 26704WK  26075.70045139  .00000000  00000+0  00000-0 0  9993
2 10078  40.0000 228.0000 0000000   0.0000  48.0000 13.16009679    19
CTC2_L_00365020-04
1 10079U 26978EE  26075.70045139  .00000000  00000+0  00000-0 0  9997
2 10079  40.0000 228.0000 0000000   0.0000 138.0000 13.16009679    10
CTC2_L_00365021-01
1 10080U 23030SE  26075.70045139  .00000000  00000+0  00000-0 0  9995
2 10080  40.0000 240.0000 0000000   0.0000 240.0000 13.16009679    10
CTC2_L_00365021-02
1 10081U 23026DH  26075.70045139  .00000000  00000+0  00000-0 0  9991
2 10081  40.0000 240.0000 0000000   0.0000 330.0000 13.16009679    11
CTC2_L_00365021-03
1 10082U 22791DX  26075.70045139  .00000000  00000+0  00000-0 0  9990
2 10082  40.0000 240.0000 0000000   0.0000  60.0000 13.16009679    12
CTC2_L_00365021-04
1 10083U 22021FI  26075.70045139  .00000000  00000+0  00000-0 0  9997
2 10083  40.0000 240.0000 0000000   0.0000 150.0000 13.16009679    13
CTC2_L_00365022-01
1 10084U 23088OQ  26075.70045139  .00000000  00000+0  00000-0 0  9992
2 10084  40.0000 252.0000 0000000   0.0000 252.0000 13.16009679    10
CTC2_L_00365022-02
1 10085U 22954JN  26075.70045139  .00000000  00000+0  00000-0 0  9994
2 10085  40.0000 252.0000 0000000   0.0000 342.0000 13.16009679    11
CTC2_L_00365022-03
1 10086U 25052JG  26075.70045139  .00000000  00000+0  00000-0 0  9997
2 10086  40.0000 252.0000 0000000   0.0000  72.0000 13.16009679    12
CTC2_L_00365022-04
1 10087U 23902MS  26075.70045139  .00000000  00000+0  00000-0 0  9990
2 10087  40.0000 252.0000 0000000   0.0000 162.0000 13.16009679    13
CTC2_L_00365023-01
1 10088U 25652EV  26075.70045139  .00000000  00000+0  00000-0 0  9995
2 10088  40.0000 264.0000 0000000   0.0000 264.0000 13.16009679    10
CTC2_L_00365023-02
1 10089U 23779TN  26075.70045139  .00000000  00000+0  00000-0 0  9994
2 10089  40.0000 264.0000 0000000   0.0000 354.0000 13.16009679    11
CTC2_L_00365023-03
1 10090U 22831KD  26075.70045139  .00000000  00000+0  00000-0 0  9994
2 10090  40.0000 264.0000 0000000   0.0000  84.0000 13.16009679    13
CTC2_L_00365023-04
1 10091U 24959QZ  26075.70045139  .00000000  00000+0  00000-0 0  9998
2 10091  40.0000 264.0000 0000000   0.0000 174.0000 13.16009679    14
CTC2_L_00365024-01
1 10092U 23251ZL  26075.70045139  .00000000  00000+0  00000-0 0  9993
2 10092  40.0000 276.0000 0000000   0.0000 276.0000 13.16009679    11
CTC2_L_00365024-02
1 10093U 22537DH  26075.70045139  .00000000  00000+0  00000-0 0  9990
2 10093  40.0000 276.0000 0000000   0.0000   6.0000 13.16009679    13
CTC2_L_00365024-03
1 10094U 25050SL  26075.70045139  .00000000  00000+0  00000-0 0  9994
2 10094  40.0000 276.0000 0000000   0.0000  96.0000 13.16009679    13
CTC2_L_00365024-04
1 10095U 25355TS  26075.70045139  .00000000  00000+0  00000-0 0  9993
2 10095  40.0000 276.0000 0000000   0.0000 186.0000 13.16009679    14
CTC2_L_00365025-01
1 10096U 26160NG  26075.70045139  .00000000  00000+0  00000-0 0  9999
2 10096  40.0000 288.0000 0000000   0.0000 288.0000 13.16009679    11
CTC2_L_00365025-02
1 10097U 24229FT  26075.70045139  .00000000  00000+0  00000-0 0  9994
2 10097  40.0000 288.0000 0000000   0.0000  18.0000 13.16009679    13
CTC2_L_00365025-03
1 10098U 25165SG  26075.70045139  .00000000  00000+0  00000-0 0  9995
2 10098  40.0000 288.0000 0000000   0.0000 108.0000 13.16009679    14
CTC2_L_00365025-04
1 10099U 23718LT  26075.70045139  .00000000  00000+0  00000-0 0  9998
2 10099  40.0000 288.0000 0000000   0.0000 198.0000 13.16009679    14
CTC2_L_00365026-01
1 10100U 22458FF  26075.70045139  .00000000  00000+0  00000-0 0  9991
2 10100  40.0000 300.0000 0000000   0.0000 300.0000 13.16009679    17
CTC2_L_00365026-02
1 10101U 25694TL  26075.70045139  .00000000  00000+0  00000-0 0  9997
2 10101  40.0000 300.0000 0000000   0.0000  30.0000 13.16009679    18
CTC2_L_00365026-03
1 10102U 24817QX  26075.70045139  .00000000  00000+0  00000-0 0  9994
2 10102  40.0000 300.0000 0000000   0.0000 120.0000 13.16009679    19
CTC2_L_00365026-04
1 10103U 22971MI  26075.70045139  .00000000  00000+0  00000-0 0  9994
2 10103  40.0000 300.0000 0000000   0.0000 210.0000 13.16009679    10
CTC2_L_00365027-01
1 10104U 24714OS  26075.70045139  .00000000  00000+0  00000-0 0  9992
2 10104  40.0000 312.0000 0000000   0.0000 312.0000 13.16009679    17
CTC2_L_00365027-02
1 10105U 24651E   26075.70045139  .00000000  00000+0  00000-0 0  9993
2 10105  40.0000 312.0000 0000000   0.0000  42.0000 13.16009679    18
CTC2_L_00365027-03
1 10106U 25621LY  26075.70045139  .00000000  00000+0  00000-0 0  9992
2 10106  40.0000 312.0000 0000000   0.0000 132.0000 13.16009679    19
CTC2_L_00365027-04
1 10107U 24539WW  26075.70045139  .00000000  00000+0  00000-0 0  9990
2 10107  40.0000 312.0000 0000000   0.0000 222.0000 13.16009679    10
CTC2_L_00365028-01
1 10108U 24576UN  26075.70045139  .00000000  00000+0  00000-0 0  9992
2 10108  40.0000 324.0000 0000000   0.0000 324.0000 13.16009679    17
CTC2_L_00365028-02
1 10109U 23895C   26075.70045139  .00000000  00000+0  00000-0 0  9996
2 10109  40.0000 324.0000 0000000   0.0000  54.0000 13.16009679    18
CTC2_L_00365028-03
1 10110U 22756OI  26075.70045139  .00000000  00000+0  00000-0 0  9993
2 10110  40.0000 324.0000 0000000   0.0000 144.0000 13.16009679    10
CTC2_L_00365028-04
1 10111U 23367TE  26075.70045139  .00000000  00000+0  00000-0 0  9993
2 10111  40.0000 324.0000 0000000   0.0000 234.0000 13.16009679    11
CTC2_L_00365029-01
1 10112U 26049ZC  26075.70045139  .00000000  00000+0  00000-0 0  9994
2 10112  40.0000 336.0000 0000000   0.0000 336.0000 13.16009679    18
CTC2_L_00365029-02
1 10113U 24414CX  26075.70045139  .00000000  00000+0  00000-0 0  9999
2 10113  40.0000 336.0000 0000000   0.0000  66.0000 13.16009679    19
CTC2_L_00365029-03
1 10114U 24570OA  26075.70045139  .00000000  00000+0  00000-0 0  9993
2 10114  40.0000 336.0000 0000000   0.0000 156.0000 13.16009679    10
CTC2_L_00365029-04
1 10115U 24229FS  26075.70045139  .00000000  00000+0  00000-0 0  9995
2 10115  40.0000 336.0000 0000000   0.0000 246.0000 13.16009679    11
CTC2_L_00365030-01
1 10116U 24900JR  26075.70045139  .00000000  00000+0  00000-0 0  9992
2 10116  40.0000 348.0000 0000000   0.0000 348.0000 13.16009679    18
CTC2_L_00365030-02
1 10117U 25530KR  26075.70045139  .00000000  00000+0  00000-0 0  9993
2 10117  40.0000 348.0000 0000000   0.0000  78.0000 13.16009679    19
CTC2_L_00365030-03
1 10118U 23976ZU  26075.70045139  .00000000  00000+0  00000-0 0  9996
2 10118  40.0000 348.0000 0000000   0.0000 168.0000 13.16009679    10
CTC2_L_00365030-04
1 10119U 26536ZT  26075.70045139  .00000000  00000+0  00000-0 0  9992
2 10119  40.0000 348.0000 0000000   0.0000 258.0000 13.16009679    11
